SAUDISAT 2              
1 28371U 04025F   26181.49202633  .00000247  00000+0  66355-4 0  9990
2 28371  98.5510 181.8179 0023467 255.1982 104.6615 14.56691179167680
COSMOS 2407             
1 28380U 04028A   26181.65382632  .00000062  00000+0  47778-4 0  9992
2 28380  82.9599  64.8601 0038355 213.1145 175.1277 13.76335673101737
COSMOS 2414             
1 28521U 05002A   26181.08057833  .00000056  00000+0  34165-4 0  9990
2 28521  82.9490  33.8921 0038816 293.5530  66.1558 13.87927223 85605
INMARSAT 4-F1           
1 28628U 05009A   26181.62997161  .00000040  00000+0  00000+0 0  9991
2 28628   5.1844  42.7724 0003015  54.7588 226.0698  1.00272803 77800
SJ-7                    
1 28737U 05024A   26180.97970477  .00008439  00000+0  37459-3 0  9999
2 28737  97.7272 211.4280 0014947 354.0395   6.0660 15.21731535149976
CUBESAT XI-V            
1 28895U 05043F   26181.38022833  .00001474  00000+0  23930-3 0  9996
2 28895  98.2997 337.2799 0014555 159.1785 201.0018 14.72666866103697
HINODE (SOLAR-B)        
1 29479U 06041A   26181.47101888  .00000709  00000+0  13017-3 0  9997
2 29479  98.0543 197.4276 0016098 243.7599 116.1952 14.68640619 56822
SHIJIAN-6 02B (SJ-6 02B)
1 29506U 06046B   26181.87553663  .00000888  00000+0  73405-4 0  9995
2 29506  97.7152 210.8495 0015056  21.5495 338.6359 15.01408295 72794
DMSP 5D-3 F17 (USA 191) 
1 29522U 06050A   26181.81696775  .00000027  00000+0  36220-4 0  9993
2 29522  98.7379 188.1081 0010591  23.4317 336.7337 14.14994752 14359
LAPAN-TUBSAT            
1 29709U 07001A   26181.85658171 -.00000187  00000+0 -14776-4 0  9990
2 29709  98.1340 181.3889 0012963 135.9851 224.2398 14.85961669 53187
HAIYANG-1B              
1 31113U 07010A   26181.42963344  .00000091  00000+0  50222-4 0  9994
2 31113  98.3501 162.7616 0013892 157.0891 203.0915 14.31030131  2537
COSMO-SKYMED 2          
1 32376U 07059A   26181.79816936  .00000386  00000+0  55048-4 0  9991
2 32376  97.8888   5.1987 0001342  89.5676 270.5691 14.82156327  4027
CARTOSAT-2A             
1 32783U 08021A   26181.84573828  .00000806  00000+0  11506-3 0  9996
2 32783  97.7629 230.0878 0013286  69.3816 290.8820 14.79259343980829
CUTE-1.7+APD II (CO-65) 
1 32785U 08021C   26181.77153531  .00005722  00000+0  36012-3 0  9996
2 32785  97.8276 163.4738 0008354 354.3773   5.7360 15.09578189987244
SEEDS II (CO-66)        
1 32791U 08021J   26181.45168146  .00016684  00000+0  52225-3 0  9999
2 32791  97.7515 179.9864 0001143 194.0088 166.1122 15.33195659989328
YUBILEINY (RS30)        
1 32953U 08025A   26181.86020988  .00000068  00000+0  41837-3 0  9995
2 32953  82.5042 346.9331 0018510 282.2954  77.6053 12.43180360821390
FENGYUN 3A              
1 32958U 08026A   26181.36871077  .00000065  00000+0  51551-4 0  9991
2 32958  98.6885 121.9554 0009884  89.7733 270.4576 14.19573724937278
HUANJING 1A (HJ-1A)     
1 33320U 08041A   26181.85399020  .00001298  00000+0  16146-3 0  9998
2 33320  97.6681 167.1638 0020668  93.0490 267.3090 14.84017703960433
HUANJING 1B (HJ-1B)     
1 33321U 08041B   26181.89676356  .00000198  00000+0  30116-4 0  9995
2 33321  97.6518 170.3353 0037252 136.3827 224.0343 14.83338468960440
SHIJIAN-6 03A (SJ-6 03A)
1 33408U 08053A   26181.83263471  .00003781  00000+0  19324-3 0  9996
2 33408  97.8402 215.6277 0010368 332.7723  27.2965 15.17290392965038
SHIJIAN-6 03B (SJ-6 03B)
1 33409U 08053B   26181.86873561  .00001816  00000+0  13444-3 0  9991
2 33409  97.8564 201.9856 0019324 358.8437   1.2741 15.04344621964800
