OBJECT_NAME,OBJECT_ID,EPOCH,MEAN_MOTION,ECCENTRICITY,INCLINATION,RA_OF_ASC_NODE,ARG_OF_PERICENTER,MEAN_ANOMALY,EPHEMERIS_TYPE,CLASSIFICATION_TYPE,NORAD_CAT_ID,ELEMENT_SET_NO,REV_AT_EPOCH,BSTAR,MEAN_MOTION_DOT,MEAN_MOTION_DDOT
SAUDISAT 2,2004-025F,2026-06-30T11:48:31.074912,14.56691179,.00234671,98.5510,181.8179,255.1982,104.6615,0,U,28371,999,16768,.66354631E-4,.247E-5,0
COSMOS 2407,2004-028A,2026-06-30T15:41:30.594048,13.76335673,.0038355,82.9599,64.8601,213.1145,175.1277,0,U,28380,999,10173,.47778E-4,.62E-6,0
COSMOS 2414,2005-002A,2026-06-30T01:56:01.967712,13.87927223,.0038816,82.9490,33.8921,293.5530,66.1558,0,U,28521,999,8560,.34164869E-4,.56E-6,0
INMARSAT 4-F1,2005-009A,2026-06-30T15:07:09.547104,1.00272803,.0003015,5.1844,42.7724,54.7588,226.0698,0,U,28628,999,7780,0,.4E-6,0
SJ-7,2005-024A,2026-06-29T23:30:46.492128,15.21731535,.00149472,97.7272,211.4280,354.0395,6.0660,0,U,28737,999,14997,.37459255E-3,.8439E-4,0
CUBESAT XI-V,2005-043F,2026-06-30T09:07:31.727712,14.72666866,.00145552,98.2997,337.2799,159.1785,201.0018,0,U,28895,999,10369,.23930319E-3,.1474E-4,0
HINODE (SOLAR-B),2006-041A,2026-06-30T11:18:16.031232,14.68640619,.00160982,98.0543,197.4276,243.7599,116.1952,0,U,29479,999,5682,.13017071E-3,.709E-5,0
SHIJIAN-6 02B (SJ-6 02B),2006-046B,2026-06-30T21:00:46.364832,15.01408295,.0015056,97.7152,210.8495,21.5495,338.6359,0,U,29506,999,7279,.73405E-4,.888E-5,0
DMSP 5D-3 F17 (USA 191),2006-050A,2026-06-30T19:36:26.013600,14.14994752,.0010591,98.7379,188.1081,23.4317,336.7337,0,U,29522,999,1435,.3622E-4,.27E-6,0
LAPAN-TUBSAT,2007-001A,2026-06-30T20:33:28.659744,14.85961669,.0012963,98.1340,181.3889,135.9851,224.2398,0,U,29709,999,5318,-.14776E-4,-.187E-5,0
HAIYANG-1B,2007-010A,2026-06-30T10:18:40.329216,14.31030131,.00138922,98.3501,162.7616,157.0891,203.0915,0,U,31113,999,253,.50222182E-4,.91E-6,0
COSMO-SKYMED 2,2007-059A,2026-06-30T19:09:21.832704,14.82156327,.0001342,97.8888,5.1987,89.5676,270.5691,0,U,32376,999,402,.55048E-4,.386E-5,0
CARTOSAT-2A,2008-021A,2026-06-30T20:17:51.787392,14.79259343,.0013286,97.7629,230.0878,69.3816,290.8820,0,U,32783,999,98082,.11506E-3,.806E-5,0
CUTE-1.7+APD II (CO-65),2008-021C,2026-06-30T18:31:00.650784,15.09578189,.0008354,97.8276,163.4738,354.3773,5.7360,0,U,32785,999,98724,.36012E-3,.5722E-4,0
SEEDS II (CO-66),2008-021J,2026-06-30T10:50:25.278144,15.33195659,.00011439,97.7515,179.9864,194.0088,166.1122,0,U,32791,999,98932,.52224958E-3,.16684E-3,0
YUBILEINY (RS30),2008-025A,2026-06-30T20:38:42.133632,12.43180360,.001851,82.5042,346.9331,282.2954,77.6053,0,U,32953,999,82139,.41837E-3,.68E-6,0
FENGYUN 3A,2008-026A,2026-06-30T08:50:56.610528,14.19573724,.00098846,98.6885,121.9554,89.7733,270.4576,0,U,32958,999,93727,.51550923E-4,.65E-6,0
HUANJING 1A (HJ-1A),2008-041A,2026-06-30T20:29:44.753280,14.84017703,.0020668,97.6681,167.1638,93.0490,267.3090,0,U,33320,999,96043,.16146E-3,.1298E-4,0
HUANJING 1B (HJ-1B),2008-041B,2026-06-30T21:31:20.371584,14.83338468,.0037252,97.6518,170.3353,136.3827,224.0343,0,U,33321,999,96044,.30116E-4,.198E-5,0
SHIJIAN-6 03A (SJ-6 03A),2008-053A,2026-06-30T19:58:59.638944,15.17290392,.0010368,97.8402,215.6277,332.7723,27.2965,0,U,33408,999,96503,.19324E-3,.3781E-4,0
SHIJIAN-6 03B (SJ-6 03B),2008-053B,2026-06-30T20:50:58.756704,15.04344621,.0019324,97.8564,201.9856,358.8437,1.2741,0,U,33409,999,96480,.13444E-3,.1816E-4,0
